#aV2021  4 12  0  0  0.00000000     288 DD+AD WGS84 FIT  NGA
## 2153  86400.00000000   300.00000000 59316 0.0000000000000
+   31     1  2  3  4  5  6  7  8  9 10 12 13 14 15 16 17 18
+         19 20 21 22 23 24 25 26 27 28 29 30 31 32  0  0  0
+          0  0  0  0  0  0  0  0  0  0  0  0  0  0  0  0  0
+          0  0  0  0  0  0  0  0  0  0  0  0  0  0  0  0  0
+          0  0  0  0  0  0  0  0  0  0  0  0  0  0  0  0  0
++         2  2  2  2  2  2  2  2  2  2  2  2  2  2  2  2  2
++         2  2  2  2  2  2  2  2  2  2  2  2  2  2  0  0  0
++         0  0  0  0  0  0  0  0  0  0  0  0  0  0  0  0  0
++         0  0  0  0  0  0  0  0  0  0  0  0  0  0  0  0  0
++         0  0  0  0  0  0  0  0  0  0  0  0  0  0  0  0  0
%c cc cc ccc ccc cccc cccc cccc cccc ccccc ccccc ccccc ccccc
%c cc cc ccc ccc cccc cccc cccc cccc ccccc ccccc ccccc ccccc
%f  0.0000000  0.000000000  0.00000000000  0.000000000000000
%f  0.0000000  0.000000000  0.00000000000  0.000000000000000
%i    0    0    0    0      0      0      0      0         0
%i    0    0    0    0      0      0      0      0         0
/*      NGA, ST. LOUIS,MO.                                  
/*   EPHEMERIS COMPUTED FROM 2 DAYS OF DATA                 
/*   EPOCHA v6 SMOOTHER                                     
/*   G2139 IERS2010 SATIGS SATAPC                           
*  2021  4 12 18 35  0.00000000
P  1  13668.088775 -18888.501878  12136.016865    717.960296                    
V  1  -2313.249619  15866.223544  27084.719511     -0.098557                    
P  2 -14217.796807  -4579.253741 -21308.354433   -595.045469                    
V  2   5647.522252 -28062.552921   2239.234106     -0.034434                    
P  3  20657.497431 -12947.400673 -10482.410281   -134.932298                    
V  3  13374.545157  -1143.294206  28088.625877     -0.106437                    
P  4  11734.968431  -9715.748452 -21751.554535   -191.454718                    
V  4  18781.081673  20270.708041   1022.698036     -0.019461                    
P  5 -25808.401074   3588.319496  -5793.035910    -38.895921                    
V  5   6030.450784  -4670.312460 -30373.943894     -0.010772                    
P  6  -7922.499192 -17413.106237 -18337.854723      6.764879                    
V  6   7290.524975 -22242.890862  17968.958710      0.027886                    
P  7   6439.751600 -25478.965500    902.277478    119.977676                    
V  7   3590.927842    218.377316 -31864.134843      0.116273                    
P  8  17801.019571  -1660.404627  19733.716839    -17.268324                    
V  8  17230.380738  18078.841755 -13718.994281     -0.014323                    
P  9   1328.630450 -18023.424059 -19517.478270   -338.409296                    
V  9  18638.315314  16237.691708 -13791.614110     -0.027593                    
P 10   7752.207112  13391.944230  21729.093398   -100.612231                    
V 10 -26260.868397   7323.616264   4621.909037     -0.077608                    
P 12 -23142.821844  10110.154984  -8231.758951    -26.893485                    
V 12 -10381.994515   -360.104951  29804.439431     -0.050869                    
P 13 -19844.844849  -8508.459115  15420.925120    119.123197                    
V 13 -10571.405998 -16780.089754 -22540.722843      0.046047                    
P 14  -6080.423664 -14225.660992  21580.093539     96.509632                    
V 14  26741.094794  -6156.143074   3452.835834     -0.025740                    
P 15 -17814.556187   4003.681604  19041.220511   -156.639670                    
V 15 -18554.596979 -16757.056421 -13227.948914      0.026082                    
P 16  25365.540547   1666.132483  -8719.317819   -308.652448                    
V 16 -10126.879447   3556.077518 -29168.382815     -0.059042                    
P 17 -12259.452746 -22218.760573   8261.360895    425.290551                    
V 17   7956.273242   6157.505690  29918.089027      0.061352                    
P 18  -4469.700743  25788.201853   4318.591186    351.623293                    
V 18  -4044.217951   4543.314031 -31319.482645      0.000346                    
P 19 -17283.872556 -20222.325878  -1165.390697    -13.833415                    
V 19    912.165804  -2180.286513  32085.239522      0.050024                    
P 20 -15384.209524  17019.370050  13067.560466    523.243786                    
V 20 -16672.159020   3815.452031 -24838.215684     -0.003771                    
P 21  15604.927481 -11530.551770  18646.511670    110.481116                    
V 21  -2627.868236  22315.067763  17116.061539      0.028497                    
P 22  24625.611099  -9644.137422   -557.760878   -639.440357                    
V 22   2228.382038   3260.804307  31257.230944      0.087232                    
P 23  -4998.932402  16239.393655  20382.874735    113.843552                    
V 23 -25159.129847   6357.429660 -11267.044593     -0.020074                    
P 24 -14908.268157  14509.533898  16042.337882     -0.149442                    
V 24   1439.890444 -21175.428364  20574.975047     -0.004857                    
P 25 -12023.840183  15958.349871 -17624.326691    117.283942                    
V 25 -21673.674841   3986.259696  18944.616068      0.072861                    
P 26  19987.018750   6337.547651 -16515.214113     71.239843                    
V 26 -19268.279035   8122.940180 -20005.436524      0.051925                    
P 27  21516.674220   9876.937271  12236.916539   -111.503610                    
V 27   9827.070246  12294.664746 -26467.761350     -0.068562                    
P 28  -8451.383597 -13584.469611  21726.927583    587.782335                    
V 28  25836.742988  -4906.177636   7353.180537     -0.058145                    
P 29  -1847.545348  17837.656586 -19623.624652   -328.818043                    
V 29 -16892.972110 -18140.464611 -14975.036077     -0.066918                    
P 30  -2817.229589 -23088.079015  12663.746296   -411.902567                    
V 30   7505.798212 -14602.484693 -25289.405572     -0.052523                    
P 31  10095.331198  14663.941557 -19645.319590   -111.196892                    
V 31  -8515.785470  23472.562710  13655.608467     -0.022212                    
P 32  15082.835303  21102.451527   6227.194870     22.085443                    
V 32  -7361.708471  -3559.318976  30248.169514      0.000368                    
EOF
